SL-3 R/B                
1 13403U 82079B   26002.76078138  .00010345  00000+0  42331-3 0  9995
2 13403  81.1476 270.8791 0026327  31.5988 328.6819 15.23884253367653
SL-14 R/B               
1 13553U 82092B   26002.80673189  .00000946  00000+0  10364-3 0  9995
2 13553  82.5668 203.0087 0020893 155.9845 214.8292 14.86580627319146
SL-3 R/B                
1 13819U 83010B   26002.70812190  .00021709  00000+0  47077-3 0  9998
2 13819  81.1048  83.0129 0016238 275.8909  84.0483 15.44128501347753
SL-3 R/B                
1 14208U 83075B   26002.75951505  .00017601  00000+0  48890-3 0  9991
2 14208  97.6101   4.9557 0024489 104.2038 256.1928 15.36642111320026
COSMOS 1536             
1 14699U 84013A   26002.50729382  .00012195  00000+0  51821-3 0  9998
2 14699  82.5446 173.5646 0015053 151.1791 209.0280 15.22824672262540
SL-14 R/B               
1 14820U 84027B   26002.56613000  .00000971  00000+0  10839-3 0  9997
2 14820  82.5428 307.0264 0017644 187.5940 172.5012 14.85901701237819
SL-8 R/B                
1 15483U 85006B   26002.49621953  .00000587  00000+0  20356-3 0  9997
2 15483  74.0458  22.9444 0019525 311.2554 158.2978 14.37737217144516
SL-12 R/B(2)            
1 15772U 85042D   26002.78223550  .00000148  00000+0  88281-4 0  9996
2 15772  71.1067 226.9667 0037007 230.5158 203.5670 14.21959005105022
SL-14 R/B               
1 15945U 85069B   26002.70567793  .00000964  00000+0  10624-3 0  9990
2 15945  82.5270  86.9931 0019993  53.8828 306.4235 14.86352882163034
SL-16 R/B               
1 16182U 85097B   26002.75281154  .00000166  00000+0  10740-3 0  9997
2 16182  71.0029 279.3660 0007951 339.5741  87.3983 14.16587307 77897
SL-14 R/B               
1 16496U 86006B   26002.63209754  .00001205  00000+0  12534-3 0  9997
2 16496  82.5280 321.8934 0077856 130.8738 229.9261 14.86703969139395
COSMOS 1743             
1 16719U 86034A   26002.79175472  .00043743  00000+0  68419-3 0  9998
2 16719  82.5352 142.7049 0004987 170.6309 189.5038 15.53563596170002
