CCSDS_OMM_VERS = 2.0
CREATION_DATE  = 
ORIGINATOR     = 

OBJECT_NAME    = SL-3 R/B
OBJECT_ID      = 1982-079B
CENTER_NAME    = EARTH
REF_FRAME      = TEME
TIME_SYSTEM    = UTC
MEAN_ELEMENT_THEORY = SGP/SGP4

EPOCH          = 2026-01-02T18:15:31.511232
MEAN_MOTION    = 15.23884253
ECCENTRICITY   = .0026327
INCLINATION    = 81.1476
RA_OF_ASC_NODE = 270.8791
ARG_OF_PERICENTER = 31.5988
MEAN_ANOMALY   = 328.6819

EPHEMERIS_TYPE = 0
CLASSIFICATION_TYPE = U
NORAD_CAT_ID   = 13403
ELEMENT_SET_NO = 999
REV_AT_EPOCH   = 36765
BSTAR          = .42331E-3
MEAN_MOTION_DOT = .10345E-3
MEAN_MOTION_DDOT = 0

CCSDS_OMM_VERS = 2.0
CREATION_DATE  = 
ORIGINATOR     = 

OBJECT_NAME    = SL-14 R/B
OBJECT_ID      = 1982-092B
CENTER_NAME    = EARTH
REF_FRAME      = TEME
TIME_SYSTEM    = UTC
MEAN_ELEMENT_THEORY = SGP/SGP4

EPOCH          = 2026-01-02T19:21:41.635296
MEAN_MOTION    = 14.86580627
ECCENTRICITY   = .0020893
INCLINATION    = 82.5668
RA_OF_ASC_NODE = 203.0087
ARG_OF_PERICENTER = 155.9845
MEAN_ANOMALY   = 214.8292

EPHEMERIS_TYPE = 0
CLASSIFICATION_TYPE = U
NORAD_CAT_ID   = 13553
ELEMENT_SET_NO = 999
REV_AT_EPOCH   = 31914
BSTAR          = .10364E-3
MEAN_MOTION_DOT = .946E-5
MEAN_MOTION_DDOT = 0

CCSDS_OMM_VERS = 2.0
CREATION_DATE  = 
ORIGINATOR     = 

OBJECT_NAME    = SL-3 R/B
OBJECT_ID      = 1983-010B
CENTER_NAME    = EARTH
REF_FRAME      = TEME
TIME_SYSTEM    = UTC
MEAN_ELEMENT_THEORY = SGP/SGP4

EPOCH          = 2026-01-02T16:59:41.732160
MEAN_MOTION    = 15.44128501
ECCENTRICITY   = .0016238
INCLINATION    = 81.1048
RA_OF_ASC_NODE = 83.0129
ARG_OF_PERICENTER = 275.8909
MEAN_ANOMALY   = 84.0483

EPHEMERIS_TYPE = 0
CLASSIFICATION_TYPE = U
NORAD_CAT_ID   = 13819
ELEMENT_SET_NO = 999
REV_AT_EPOCH   = 34775
BSTAR          = .47077E-3
MEAN_MOTION_DOT = .21709E-3
MEAN_MOTION_DDOT = 0

CCSDS_OMM_VERS = 2.0
CREATION_DATE  = 
ORIGINATOR     = 

OBJECT_NAME    = SL-3 R/B
OBJECT_ID      = 1983-075B
CENTER_NAME    = EARTH
REF_FRAME      = TEME
TIME_SYSTEM    = UTC
MEAN_ELEMENT_THEORY = SGP/SGP4

EPOCH          = 2026-01-02T18:13:42.100320
MEAN_MOTION    = 15.36642111
ECCENTRICITY   = .0024489
INCLINATION    = 97.6101
RA_OF_ASC_NODE = 4.9557
ARG_OF_PERICENTER = 104.2038
MEAN_ANOMALY   = 256.1928

EPHEMERIS_TYPE = 0
CLASSIFICATION_TYPE = U
NORAD_CAT_ID   = 14208
ELEMENT_SET_NO = 999
REV_AT_EPOCH   = 32002
BSTAR          = .4889E-3
MEAN_MOTION_DOT = .17601E-3
MEAN_MOTION_DDOT = 0

CCSDS_OMM_VERS = 2.0
CREATION_DATE  = 
ORIGINATOR     = 

OBJECT_NAME    = COSMOS 1536
OBJECT_ID      = 1984-013A
CENTER_NAME    = EARTH
REF_FRAME      = TEME
TIME_SYSTEM    = UTC
MEAN_ELEMENT_THEORY = SGP/SGP4

EPOCH          = 2026-01-02T12:10:30.186048
MEAN_MOTION    = 15.22824672
ECCENTRICITY   = .0015053
INCLINATION    = 82.5446
RA_OF_ASC_NODE = 173.5646
ARG_OF_PERICENTER = 151.1791
MEAN_ANOMALY   = 209.0280

EPHEMERIS_TYPE = 0
CLASSIFICATION_TYPE = U
NORAD_CAT_ID   = 14699
ELEMENT_SET_NO = 999
REV_AT_EPOCH   = 26254
BSTAR          = .51821E-3
MEAN_MOTION_DOT = .12195E-3
MEAN_MOTION_DDOT = 0

CCSDS_OMM_VERS = 2.0
CREATION_DATE  = 
ORIGINATOR     = 

OBJECT_NAME    = SL-14 R/B
OBJECT_ID      = 1984-027B
CENTER_NAME    = EARTH
REF_FRAME      = TEME
TIME_SYSTEM    = UTC
MEAN_ELEMENT_THEORY = SGP/SGP4

EPOCH          = 2026-01-02T13:35:13.632000
MEAN_MOTION    = 14.85901701
ECCENTRICITY   = .0017644
INCLINATION    = 82.5428
RA_OF_ASC_NODE = 307.0264
ARG_OF_PERICENTER = 187.5940
MEAN_ANOMALY   = 172.5012

EPHEMERIS_TYPE = 0
CLASSIFICATION_TYPE = U
NORAD_CAT_ID   = 14820
ELEMENT_SET_NO = 999
REV_AT_EPOCH   = 23781
BSTAR          = .10839E-3
MEAN_MOTION_DOT = .971E-5
MEAN_MOTION_DDOT = 0

CCSDS_OMM_VERS = 2.0
CREATION_DATE  = 
ORIGINATOR     = 

OBJECT_NAME    = SL-8 R/B
OBJECT_ID      = 1985-006B
CENTER_NAME    = EARTH
REF_FRAME      = TEME
TIME_SYSTEM    = UTC
MEAN_ELEMENT_THEORY = SGP/SGP4

EPOCH          = 2026-01-02T11:54:33.367392
MEAN_MOTION    = 14.37737217
ECCENTRICITY   = .0019525
INCLINATION    = 74.0458
RA_OF_ASC_NODE = 22.9444
ARG_OF_PERICENTER = 311.2554
MEAN_ANOMALY   = 158.2978

EPHEMERIS_TYPE = 0
CLASSIFICATION_TYPE = U
NORAD_CAT_ID   = 15483
ELEMENT_SET_NO = 999
REV_AT_EPOCH   = 14451
BSTAR          = .20356E-3
MEAN_MOTION_DOT = .587E-5
MEAN_MOTION_DDOT = 0

CCSDS_OMM_VERS = 2.0
CREATION_DATE  = 
ORIGINATOR     = 

OBJECT_NAME    = SL-12 R/B(2)
OBJECT_ID      = 1985-042D
CENTER_NAME    = EARTH
REF_FRAME      = TEME
TIME_SYSTEM    = UTC
MEAN_ELEMENT_THEORY = SGP/SGP4

EPOCH          = 2026-01-02T18:46:25.147200
MEAN_MOTION    = 14.21959005
ECCENTRICITY   = .0037007
INCLINATION    = 71.1067
RA_OF_ASC_NODE = 226.9667
ARG_OF_PERICENTER = 230.5158
MEAN_ANOMALY   = 203.5670

EPHEMERIS_TYPE = 0
CLASSIFICATION_TYPE = U
NORAD_CAT_ID   = 15772
ELEMENT_SET_NO = 999
REV_AT_EPOCH   = 10502
BSTAR          = .88281E-4
MEAN_MOTION_DOT = .148E-5
MEAN_MOTION_DDOT = 0

CCSDS_OMM_VERS = 2.0
CREATION_DATE  = 
ORIGINATOR     = 

OBJECT_NAME    = SL-14 R/B
OBJECT_ID      = 1985-069B
CENTER_NAME    = EARTH
REF_FRAME      = TEME
TIME_SYSTEM    = UTC
MEAN_ELEMENT_THEORY = SGP/SGP4

EPOCH          = 2026-01-02T16:56:10.573152
MEAN_MOTION    = 14.86352882
ECCENTRICITY   = .0019993
INCLINATION    = 82.5270
RA_OF_ASC_NODE = 86.9931
ARG_OF_PERICENTER = 53.8828
MEAN_ANOMALY   = 306.4235

EPHEMERIS_TYPE = 0
CLASSIFICATION_TYPE = U
NORAD_CAT_ID   = 15945
ELEMENT_SET_NO = 999
REV_AT_EPOCH   = 16303
BSTAR          = .10624E-3
MEAN_MOTION_DOT = .964E-5
MEAN_MOTION_DDOT = 0

CCSDS_OMM_VERS = 2.0
CREATION_DATE  = 
ORIGINATOR     = 

OBJECT_NAME    = SL-16 R/B
OBJECT_ID      = 1985-097B
CENTER_NAME    = EARTH
REF_FRAME      = TEME
TIME_SYSTEM    = UTC
MEAN_ELEMENT_THEORY = SGP/SGP4

EPOCH          = 2026-01-02T18:04:02.917056
MEAN_MOTION    = 14.16587307
ECCENTRICITY   = .0007951
INCLINATION    = 71.0029
RA_OF_ASC_NODE = 279.3660
ARG_OF_PERICENTER = 339.5741
MEAN_ANOMALY   = 87.3983

EPHEMERIS_TYPE = 0
CLASSIFICATION_TYPE = U
NORAD_CAT_ID   = 16182
ELEMENT_SET_NO = 999
REV_AT_EPOCH   = 7789
BSTAR          = .1074E-3
MEAN_MOTION_DOT = .166E-5
MEAN_MOTION_DDOT = 0

CCSDS_OMM_VERS = 2.0
CREATION_DATE  = 
ORIGINATOR     = 

OBJECT_NAME    = SL-14 R/B
OBJECT_ID      = 1986-006B
CENTER_NAME    = EARTH
REF_FRAME      = TEME
TIME_SYSTEM    = UTC
MEAN_ELEMENT_THEORY = SGP/SGP4

EPOCH          = 2026-01-02T15:10:13.227456
MEAN_MOTION    = 14.86703969
ECCENTRICITY   = .0077856
INCLINATION    = 82.5280
RA_OF_ASC_NODE = 321.8934
ARG_OF_PERICENTER = 130.8738
MEAN_ANOMALY   = 229.9261

EPHEMERIS_TYPE = 0
CLASSIFICATION_TYPE = U
NORAD_CAT_ID   = 16496
ELEMENT_SET_NO = 999
REV_AT_EPOCH   = 13939
BSTAR          = .12534E-3
MEAN_MOTION_DOT = .1205E-4
MEAN_MOTION_DDOT = 0

CCSDS_OMM_VERS = 2.0
CREATION_DATE  = 
ORIGINATOR     = 

OBJECT_NAME    = COSMOS 1743
OBJECT_ID      = 1986-034A
CENTER_NAME    = EARTH
REF_FRAME      = TEME
TIME_SYSTEM    = UTC
MEAN_ELEMENT_THEORY = SGP/SGP4

EPOCH          = 2026-01-02T19:00:07.607808
MEAN_MOTION    = 15.53563596
ECCENTRICITY   = .0004987
INCLINATION    = 82.5352
RA_OF_ASC_NODE = 142.7049
ARG_OF_PERICENTER = 170.6309
MEAN_ANOMALY   = 189.5038

EPHEMERIS_TYPE = 0
CLASSIFICATION_TYPE = U
NORAD_CAT_ID   = 16719
ELEMENT_SET_NO = 999
REV_AT_EPOCH   = 17000
BSTAR          = .68419E-3
MEAN_MOTION_DOT = .43743E-3
MEAN_MOTION_DDOT = 0

